ONEWEB-0136             
1 47282U 20100AA  24215.49665109 -.00002652  00000+0 -74120-2 0  9992
2 47282  87.8950 126.7993 0001372  79.8260 280.3024 13.12423502174985
ONEWEB-0137             
1 47283U 20100AB  24215.45446527  .00000167  00000+0  43024-3 0  9997
2 47283  87.8944 126.8303 0001980  80.8978 279.2375 13.12440872174882
ONEWEB-0138             
1 47284U 20100AC  24215.73832316  .00000361  00000+0  96866-3 0  9992
2 47284  87.8942 126.7862 0001859  79.4464 280.6873 13.12444824175004
ONEWEB-0139             
1 47285U 20100AD  24215.77741103 -.00000438  00000+0 -12536-2 0  9998
2 47285  87.8949 126.7499 0001910  76.7295 283.4046 13.12443251175082
ONEWEB-0140             
1 47286U 20100AE  24215.50311636 -.00000056  00000+0 -19164-3 0  9995
2 47286  87.8944 126.8086 0001774  77.3901 282.7426 13.12444198175018
ONEWEB-0141             
1 47287U 20100AF  24215.47216332 -.00000406  00000+0 -11634-2 0  9991
2 47287  87.8947 126.8269 0002104  79.4157 280.7208 13.12441461174991
ONEWEB-0142             
1 47288U 20100AG  24215.51690391  .00000452  00000+0  12201-2 0  9998
2 47288  87.8946 126.7990 0001923  85.2267 274.9082 13.12445244174994
ONEWEB-0143             
1 47289U 20100AH  24215.47067985 -.00000341  00000+0 -98210-3 0  9995
2 47289  87.8949 126.8293 0001984  75.0248 285.1100 13.12440496174964
